0 COSMOS 2251 DEB
1 36558U 93036BDU 13283.00902700  .00001156  00000-0  38974-3 0  3028
2 36558 074.0486 133.4753 0018216 245.1382 183.9186 14.38065258213247
0 COSMOS 2251 DEB
1 36558U 93036BDU 13285.24474772  .00001156  00000-0  38948-3 0  3031
2 36558 074.0483 129.3605 0018145 240.6544 238.1510 14.38070086213569
0 COSMOS 2251 DEB
1 36558U 93036BDU 13287.87626277  .00001967  00000-0  65650-3 0  3042
2 36558 074.0483 124.5173 0018073 235.4000 181.4246 14.38078356213941
0 COSMOS 2251 DEB
1 36558U 93036BDU 13290.25257096  .00001587  00000-0  53142-3 0  3059
2 36558 074.0485 120.1434 0017999 230.6221 243.6051 14.38086521214289
0 COSMOS 2251 DEB
1 36558U 93036BDU 13293.17504807  .00001862  00000-0  62175-3 0  3061
2 36558 074.0488 114.7642 0017914 224.8430 253.3132 14.38094645214707
0 COSMOS 2251 DEB
1 36558U 93036BDU 13295.19268813  .00002072  00000-0  69077-3 0  3072
2 36558 074.0489 111.0506 0017863 220.8476 258.7274 14.38102207214997
